$$SOE
2460721.500000000, A.D. 2025-Feb-15 00:00:00.0000, -2.293415704300305E+08, 2.324962476324620E+08, 2.094961794918105E+07,
2460728.500000000, A.D. 2025-Feb-22 00:00:00.0000, -2.409536350940829E+08, 2.261336515943563E+08, 1.849245266034395E+07,
2460735.500000000, A.D. 2025-Mar-01 00:00:00.0000, -2.522430818325401E+08, 2.194682139426611E+08, 1.601050227713661E+07,
2460742.500000000, A.D. 2025-Mar-08 00:00:00.0000, -2.632060795226968E+08, 2.125186816740876E+08, 1.350780778940032E+07,
2460749.500000000, A.D. 2025-Mar-15 00:00:00.0000, -2.738398431308364E+08, 2.053032622712853E+08, 1.098819482625294E+07,
2460756.500000000, A.D. 2025-Mar-22 00:00:00.0000, -2.841425408022218E+08, 1.978395872995634E+08, 8.455276773970991E+06,
2460763.500000000, A.D. 2025-Mar-29 00:00:00.0000, -2.941132037888343E+08, 1.901446839364668E+08, 5.912459123975545E+06,
2460770.500000000, A.D. 2025-Apr-05 00:00:00.0000, -3.037516394534569E+08, 1.822349562854564E+08, 3.362944966450602E+06,
2460777.500000000, A.D. 2025-Apr-12 00:00:00.0000, -3.130583496478407E+08, 1.741261753665494E+08, 8.097415382000729E+05,
2460784.500000000, A.D. 2025-Apr-19 00:00:00.0000, -3.220344548538258E+08, 1.658334757810031E+08, -1.744332471849501E+06,
2460791.500000000, A.D. 2025-Apr-26 00:00:00.0000, -3.306816238796781E+08, 1.573713578169613E+08, -4.296639108858302E+06,
2460798.500000000, A.D. 2025-May-03 00:00:00.0000, -3.390020089569505E+08, 1.487536940835611E+08, -6.844713015412316E+06,
2460805.500000000, A.D. 2025-May-10 00:00:00.0000, -3.469981860871321E+08, 1.399937398510662E+08, -9.386253122143947E+06,
2460812.500000000, A.D. 2025-May-17 00:00:00.0000, -3.546731004175723E+08, 1.311041463223777E+08, -1.191911429519902E+07,
2460819.500000000, A.D. 2025-May-24 00:00:00.0000, -3.620300162441139E+08, 1.220969761397915E+08, -1.444129906126042E+07,
2460826.500000000, A.D. 2025-May-31 00:00:00.0000, -3.690724709632633E+08, 1.129837208814501E+08, -1.695094950355340E+07,
2460833.500000000, A.D. 2025-Jun-07 00:00:00.0000, -3.758042330967531E+08, 1.037753212732321E+08, -1.944633925699369E+07,
2460840.500000000, A.D. 2025-Jun-14 00:00:00.0000, -3.822292664677267E+08, 9.448218904070446E+07, -2.192586548915256E+07,
2460847.500000000, A.D. 2025-Jun-21 00:00:00.0000, -3.883516990259141E+08, 8.511422678691255E+07, -2.438804128292365E+07,
2460854.500000000, A.D. 2025-Jun-28 00:00:00.0000, -3.941757929063293E+08, 7.568084737452637E+07, -2.683148858919069E+07,
2460861.500000000, A.D. 2025-Jul-05 00:00:00.0000, -3.997059169572996E+08, 6.619099472775556E+07, -2.925493145050166E+07,
2460868.500000000, A.D. 2025-Jul-12 00:00:00.0000, -4.049465226645095E+08, 5.665316505036817E+07, -3.165718946249282E+07,
2460875.500000000, A.D. 2025-Jul-19 00:00:00.0000, -4.099021230315343E+08, 4.707542772671454E+07, -3.403717154209410E+07,
2460882.500000000, A.D. 2025-Jul-26 00:00:00.0000, -4.145772739693649E+08, 3.746544572375683E+07, -3.639387002590469E+07,
2460889.500000000, A.D. 2025-Aug-02 00:00:00.0000, -4.189765579064734E+08, 2.783049541702152E+07, -3.872635509853911E+07,
2460896.500000000, A.D. 2025-Aug-09 00:00:00.0000, -4.231045693887266E+08, 1.817748575018553E+07, -4.103376954696299E+07,
2460903.500000000, A.D. 2025-Aug-16 00:00:00.0000, -4.269659024006338E+08, 8.512976609216811E+06, -4.331532384353279E+07,
2460910.500000000, A.D. 2025-Aug-23 00:00:00.0000, -4.305651389388324E+08, -1.156803611635130E+06, -4.557029157205991E+07,
2460917.500000000, A.D. 2025-Aug-30 00:00:00.0000, -4.339068383466780E+08, -1.082594056341789E+07, -4.779800515631233E+07,
2460924.500000000, A.D. 2025-Sep-06 00:00:00.0000, -4.369955286796529E+08, -2.048881562993767E+07, -4.999785166597927E+07,
2460931.500000000, A.D. 2025-Sep-13 00:00:00.0000, -4.398357016384888E+08, -3.014008923766522E+07, -5.216926873658960E+07,
2460938.500000000, A.D. 2025-Sep-20 00:00:00.0000, -4.424318076761720E+08, -3.977468742927966E+07, -5.431174102484278E+07,
2460945.500000000, A.D. 2025-Sep-27 00:00:00.0000, -4.447882501083328E+08, -4.938778857895122E+07, -5.642479702827270E+07,
2460952.500000000, A.D. 2025-Oct-04 00:00:00.0000, -4.469093801409980E+08, -5.897480969678475E+07, -5.850800602628846E+07,
2460959.500000000, A.D. 2025-Oct-11 00:00:00.0000, -4.487994930985993E+08, -6.853139324935205E+07, -6.056097517256697E+07,
2460966.500000000, A.D. 2025-Oct-18 00:00:00.0000, -4.504628254880353E+08, -7.805339475067627E+07, -6.258334677521594E+07,
2460973.500000000, A.D. 2025-Oct-25 00:00:00.0000, -4.519035526862248E+08, -8.753687108941659E+07, -6.457479576483907E+07,
2460980.500000000, A.D. 2025-Nov-01 00:00:00.0000, -4.531257871451055E+08, -9.697806955170265E+07, -6.653502734129447E+07,
2460987.500000000, A.D. 2025-Nov-08 00:00:00.0000, -4.541335770188600E+08, -1.063734175450760E+08, -6.846377479359396E+07,
2460994.500000000, A.D. 2025-Nov-15 00:00:00.0000, -4.549309050103614E+08, -1.157195130560882E+08, -7.036079750035028E+07,
2461001.500000000, A.D. 2025-Nov-22 00:00:00.0000, -4.555216869844597E+08, -1.250131155961676E+08, -7.222587911933896E+07,
2461008.500000000, A.D. 2025-Nov-29 00:00:00.0000, -4.559097704571988E+08, -1.342511364765006E+08, -7.405882584983397E+07,
2461015.500000000, A.D. 2025-Dec-06 00:00:00.0000, -4.560989352000927E+08, -1.434306285246890E+08, -7.585946456153086E+07,
2461022.500000000, A.D. 2025-Dec-13 00:00:00.0000, -4.560928954937040E+08, -1.525487785906211E+08, -7.762764109807676E+07,
2461029.500000000, A.D. 2025-Dec-20 00:00:00.0000, -4.558953005095636E+08, -1.616029017942735E+08, -7.936321898522460E+07,
2461036.500000000, A.D. 2025-Dec-27 00:00:00.0000, -4.555097338675251E+08, -1.705904348992575E+08, -8.106607822612044E+07,
2461043.500000000, A.D. 2026-Jan-03 00:00:00.0000, -4.549397138025211E+08, -1.795089294042157E+08, -8.273611409299026E+07,
2461050.500000000, A.D. 2026-Jan-10 00:00:00.0000, -4.541886938088152E+08, -1.883560450092463E+08, -8.437323597424260E+07,
2461057.500000000, A.D. 2026-Jan-17 00:00:00.0000, -4.532600635100992E+08, -1.971295435280173E+08, -8.597736629985161E+07,
2461064.500000000, A.D. 2026-Jan-24 00:00:00.0000, -4.521571496605930E+08, -2.058272832025521E+08, -8.754843954467525E+07,
2461071.500000000, A.D. 2026-Jan-31 00:00:00.0000, -4.508832172385136E+08, -2.144472134085385E+08, -8.908640130710530E+07,
2461078.500000000, A.D. 2026-Feb-07 00:00:00.0000, -4.494414705568836E+08, -2.229873697899370E+08, -9.059120746835816E+07,
2461085.500000000, A.D. 2026-Feb-14 00:00:00.0000, -4.478350541267006E+08, -2.314458698205765E+08, -9.206282345221476E+07,
2461092.500000000, A.D. 2026-Feb-21 00:00:00.0000, -4.460670528743710E+08, -2.398209081989947E+08, -9.350122356925160E+07,
2461099.500000000, A.D. 2026-Feb-28 00:00:00.0000, -4.441404927886999E+08, -2.481107509073141E+08, -9.490639024769655E+07,
2461106.500000000, A.D. 2026-Mar-07 00:00:00.0000, -4.420583440476058E+08, -2.563137298699070E+08, -9.627831311778419E+07,
2461113.500000000, A.D. 2026-Mar-14 00:00:00.0000, -4.398235238424592E+08, -2.644282405316984E+08, -9.761698839176904E+07,
2461120.500000000, A.D. 2026-Mar-21 00:00:00.0000, -4.374388971119307E+08, -2.724527394452298E+08, -9.892241846330325E+07,
2461127.500000000, A.D. 2026-Mar-28 00:00:00.0000, -4.349072771892617E+08, -2.803857408250175E+08, -1.001946114545643E+08,
2461134.500000000, A.D. 2026-Apr-04 00:00:00.0000, -4.322314269613726E+08, -2.882258130231673E+08, -1.014335807315613E+08,
2461141.500000000, A.D. 2026-Apr-11 00:00:00.0000, -4.294140602615091E+08, -2.959715752756712E+08, -1.026393444394287E+08,
2461148.500000000, A.D. 2026-Apr-18 00:00:00.0000, -4.264578433325971E+08, -3.036216947162101E+08, -1.038119250704098E+08,
2461155.500000000, A.D. 2026-Apr-25 00:00:00.0000, -4.233653963123626E+08, -3.111748836332849E+08, -1.049513490651780E+08,
2461162.500000000, A.D. 2026-May-02 00:00:00.0000, -4.201392947065738E+08, -3.186298969913049E+08, -1.060576464504527E+08,
2461169.500000000, A.D. 2026-May-09 00:00:00.0000, -4.167820707230901E+08, -3.259855302735012E+08, -1.071308505276325E+08,
2461176.500000000, A.D. 2026-May-16 00:00:00.0000, -4.132962140864452E+08, -3.332406175005922E+08, -1.081709976339150E+08,
2461183.500000000, A.D. 2026-May-23 00:00:00.0000, -4.096841722792444E+08, -3.403940283955536E+08, -1.091781268954326E+08,
2461190.500000000, A.D. 2026-May-30 00:00:00.0000, -4.059483522871723E+08, -3.474446643681129E+08, -1.101522797541816E+08,
2461197.500000000, A.D. 2026-Jun-06 00:00:00.0000, -4.020911241638447E+08, -3.543914565866118E+08, -1.110934995061210E+08,
2461204.500000000, A.D. 2026-Jun-13 00:00:00.0000, -3.981148227496585E+08, -3.612333659329175E+08, -1.120018311697979E+08,
2461211.500000000, A.D. 2026-Jun-20 00:00:00.0000, -3.940217480461130E+08, -3.679693819083626E+08, -1.128773213996890E+08,
2461218.500000000, A.D. 2026-Jun-27 00:00:00.0000, -3.898141659438614E+08, -3.745985208243885E+08, -1.137200183152883E+08,
2461225.500000000, A.D. 2026-Jul-04 00:00:00.0000, -3.854943093042095E+08, -3.811198240469576E+08, -1.145299713082765E+08,
2461232.500000000, A.D. 2026-Jul-11 00:00:00.0000, -3.810643791397368E+08, -3.875323564212973E+08, -1.153072308609335E+08,
2461239.500000000, A.D. 2026-Jul-18 00:00:00.0000, -3.765265458009768E+08, -3.938352048463179E+08, -1.160518483813448E+08,
2461246.500000000, A.D. 2026-Jul-25 00:00:00.0000, -3.718829501443680E+08, -4.000274769915115E+08, -1.167638760566109E+08,
2461253.500000000, A.D. 2026-Aug-01 00:00:00.0000, -3.671357046331354E+08, -4.061083002005591E+08, -1.174433667317412E+08,
2461260.500000000, A.D. 2026-Aug-08 00:00:00.0000, -3.622868941563486E+08, -4.120768206141911E+08, -1.180903738364317E+08,
2461267.500000000, A.D. 2026-Aug-15 00:00:00.0000, -3.573385761517697E+08, -4.179322020588022E+08, -1.187049513606925E+08,
2461274.500000000, A.D. 2026-Aug-22 00:00:00.0000, -3.522927807944450E+08, -4.236736234762437E+08, -1.192871537093667E+08,
2461281.500000000, A.D. 2026-Aug-29 00:00:00.0000, -3.471515135408406E+08, -4.293002762641526E+08, -1.198370353373016E+08,
$$EOE